*******************************************************************************
Ephemeris / WWW_USER Mon Jul 15 19:00:11 2024 Pasadena, USA      / Horizons    
*******************************************************************************
Target body name: (2018 RP1)                      {source: JPL#4}
Center body name: Earth (399)                     {source: DE441}
Center-site name: Gemini South Obs., Cerro Pachon
*******************************************************************************
Start time      : A.D. 2018-Dec-03 23:41:00.0000 UT      
Stop  time      : A.D. 2018-Dec-04 09:24:00.0000 UT      
Step-size       : 1 minutes
*******************************************************************************
Target pole/equ : undefined
Target radii    : undefined                                                    
Center geodetic : 289.2634, -30.2406227, 2.71233  {E-lon(deg),Lat(deg),Alt(km)}
Center cylindric: 289.2634,5517.21435,-3194.81213 {E-lon(deg),Dxy(km),Dz(km)}
Center pole/equ : ITRF93                          {East-longitude positive}
Center radii    : 6378.137, 6378.137, 6356.752 km {Equator_a, b, pole_c}       
Target primary  : Sun
Vis. interferer : MOON (R_eq= 1737.400) km        {source: DE441}
Rel. light bend : Sun                             {source: DE441}
Rel. lght bnd GM: 1.3271E+11 km^3/s^2                                          
Small-body perts: Yes                             {source: SB441-N16}
Atmos refraction: NO (AIRLESS)
RA format       : HMS
Time format     : CAL 
Calendar mode   : Mixed Julian/Gregorian
RTS-only print  : NO       
EOP file        : eop.240715.p241008                                           
EOP coverage    : DATA-BASED 1962-JAN-20 TO 2024-JUL-15. PREDICTS-> 2024-OCT-07
Units conversion: 1 au= 149597870.700 km, c= 299792.458 km/s, 1 day= 86400.0 s 
Table cut-offs 1: Elevation (-90.0deg=NO ),Airmass (>38.000=NO), Daylight (YES)
Table cut-offs 2: Solar elongation (  0.0,180.0=NO ),Local Hour Angle( 0.0=NO )
Table cut-offs 3: RA/DEC angular rate (     0.0=NO )                           
*******************************************************************************
Initial IAU76/J2000 heliocentric ecliptic osculating elements (au, days, deg.):
  EPOCH=  2458376.5 ! 2018-Sep-15.00 (TDB)         Residual RMS= .12525        
   EC= .3382936082205208   QR= .9576766169446216   TP= 2458412.3293739939      
   OM= 161.903422202901    W=  234.5704247756858   IN= 9.466091569921099       
  Equivalent ICRF heliocentric cartesian coordinates (au, au/d):
   X= 1.017940821946709E+00  Y=-7.278189102440286E-02  Z=-7.249995171787897E-02
  VX=-1.754817228708964E-03 VY= 1.862872143473751E-02 VZ= 4.887370356508847E-03
Asteroid physical parameters (km, seconds, rotational period in hours):        
   GM= n.a.                RAD= n.a.               ROTPER= n.a.                
   H= 24.3                 G= .150                 B-V= n.a.                   
                           ALBEDO= n.a.            STYP= n.a.                  
*******************************************************************************
 Date__(UT)__HR:MN     R.A._________(ICRF)_________DEC
******************************************************
$$SOE
 2018-Dec-03 23:41 C   09 51 20.325539 -20 13 01.36302
 2018-Dec-03 23:42 C   09 51 20.370444 -20 13 01.21389
 2018-Dec-03 23:43 C   09 51 20.415331 -20 13 01.06489
 2018-Dec-03 23:44 C   09 51 20.460202 -20 13 00.91603
 2018-Dec-03 23:45 C   09 51 20.505055 -20 13 00.76728
 2018-Dec-03 23:46 C   09 51 20.549891 -20 13 00.61867
 2018-Dec-03 23:47 C   09 51 20.594709 -20 13 00.47019
 2018-Dec-03 23:48 C   09 51 20.639510 -20 13 00.32183
 2018-Dec-03 23:49 C   09 51 20.684293 -20 13 00.17360
 2018-Dec-03 23:50 C   09 51 20.729058 -20 13 00.02549
 2018-Dec-03 23:51 C   09 51 20.773805 -20 12 59.87751
 2018-Dec-03 23:52 C   09 51 20.818535 -20 12 59.72966
 2018-Dec-03 23:53 C   09 51 20.863246 -20 12 59.58193
 2018-Dec-03 23:54 C   09 51 20.907938 -20 12 59.43432
 2018-Dec-03 23:55 C   09 51 20.952612 -20 12 59.28684
 2018-Dec-03 23:56 C   09 51 20.997268 -20 12 59.13949
 2018-Dec-03 23:57 C   09 51 21.041905 -20 12 58.99225
 2018-Dec-03 23:58 C   09 51 21.086523 -20 12 58.84514
 2018-Dec-03 23:59 C   09 51 21.131123 -20 12 58.69816
 2018-Dec-04 00:00 N   09 51 21.175703 -20 12 58.55129
 2018-Dec-04 00:01 N   09 51 21.220264 -20 12 58.40455
 2018-Dec-04 00:02 N   09 51 21.264806 -20 12 58.25793
 2018-Dec-04 00:03 N   09 51 21.309329 -20 12 58.11144
 2018-Dec-04 00:04 N   09 51 21.353832 -20 12 57.96506
 2018-Dec-04 00:05 N   09 51 21.398315 -20 12 57.81880
 2018-Dec-04 00:06 N   09 51 21.442779 -20 12 57.67267
 2018-Dec-04 00:07 N   09 51 21.487223 -20 12 57.52665
 2018-Dec-04 00:08 N   09 51 21.531647 -20 12 57.38075
 2018-Dec-04 00:09 N   09 51 21.576051 -20 12 57.23497
 2018-Dec-04 00:10 N   09 51 21.620435 -20 12 57.08932
 2018-Dec-04 00:11 N   09 51 21.664798 -20 12 56.94377
 2018-Dec-04 00:12 N   09 51 21.709141 -20 12 56.79835
 2018-Dec-04 00:13 N   09 51 21.753464 -20 12 56.65305
 2018-Dec-04 00:14 N   09 51 21.797766 -20 12 56.50786
 2018-Dec-04 00:15 N   09 51 21.842047 -20 12 56.36278
 2018-Dec-04 00:16 N   09 51 21.886308 -20 12 56.21783
 2018-Dec-04 00:17 N   09 51 21.930548 -20 12 56.07299
 2018-Dec-04 00:18 N   09 51 21.974766 -20 12 55.92826
 2018-Dec-04 00:19 N   09 51 22.018964 -20 12 55.78365
 2018-Dec-04 00:20 N   09 51 22.063140 -20 12 55.63916
 2018-Dec-04 00:21 N   09 51 22.107295 -20 12 55.49478
 2018-Dec-04 00:22 N   09 51 22.151428 -20 12 55.35051
 2018-Dec-04 00:23 N   09 51 22.195540 -20 12 55.20636
 2018-Dec-04 00:24 N   09 51 22.239630 -20 12 55.06232
 2018-Dec-04 00:25 N   09 51 22.283698 -20 12 54.91839
 2018-Dec-04 00:26 N   09 51 22.327744 -20 12 54.77457
 2018-Dec-04 00:27 N   09 51 22.371768 -20 12 54.63086
 2018-Dec-04 00:28 N   09 51 22.415771 -20 12 54.48727
 2018-Dec-04 00:29 N   09 51 22.459751 -20 12 54.34379
 2018-Dec-04 00:30 N   09 51 22.503708 -20 12 54.20041
 2018-Dec-04 00:31 N   09 51 22.547644 -20 12 54.05715
 2018-Dec-04 00:32 N   09 51 22.591556 -20 12 53.91399
 2018-Dec-04 00:33 A   09 51 22.635446 -20 12 53.77095
 2018-Dec-04 00:34 A   09 51 22.679314 -20 12 53.62801
 2018-Dec-04 00:35 A   09 51 22.723158 -20 12 53.48518
 2018-Dec-04 00:36 A   09 51 22.766980 -20 12 53.34246
 2018-Dec-04 00:37 A   09 51 22.810778 -20 12 53.19984
 2018-Dec-04 00:38 A   09 51 22.854553 -20 12 53.05733
 2018-Dec-04 00:39 A   09 51 22.898305 -20 12 52.91493
 2018-Dec-04 00:40 A   09 51 22.942034 -20 12 52.77263
 2018-Dec-04 00:41 A   09 51 22.985739 -20 12 52.63044
 2018-Dec-04 00:42 A   09 51 23.029421 -20 12 52.48835
 2018-Dec-04 00:43 A   09 51 23.073079 -20 12 52.34637
 2018-Dec-04 00:44 A   09 51 23.116713 -20 12 52.20449
 2018-Dec-04 00:45 A   09 51 23.160324 -20 12 52.06271
 2018-Dec-04 00:46 A   09 51 23.203910 -20 12 51.92104
 2018-Dec-04 00:47 A   09 51 23.247473 -20 12 51.77947
 2018-Dec-04 00:48 A   09 51 23.291011 -20 12 51.63800
 2018-Dec-04 00:49 A   09 51 23.334525 -20 12 51.49663
 2018-Dec-04 00:50 A   09 51 23.378015 -20 12 51.35536
 2018-Dec-04 00:51 A   09 51 23.421480 -20 12 51.21419
 2018-Dec-04 00:52 A   09 51 23.464921 -20 12 51.07312
 2018-Dec-04 00:53 A   09 51 23.508337 -20 12 50.93216
 2018-Dec-04 00:54 A   09 51 23.551729 -20 12 50.79129
 2018-Dec-04 00:55 A   09 51 23.595095 -20 12 50.65051
 2018-Dec-04 00:56 A   09 51 23.638437 -20 12 50.50984
 2018-Dec-04 00:57 A   09 51 23.681754 -20 12 50.36926
 2018-Dec-04 00:58 A   09 51 23.725045 -20 12 50.22878
 2018-Dec-04 00:59 A   09 51 23.768312 -20 12 50.08840
 2018-Dec-04 01:00 A   09 51 23.811553 -20 12 49.94811
 2018-Dec-04 01:01 A   09 51 23.854769 -20 12 49.80792
 2018-Dec-04 01:02 A   09 51 23.897959 -20 12 49.66782
 2018-Dec-04 01:03 A   09 51 23.941124 -20 12 49.52782
 2018-Dec-04 01:04 A   09 51 23.984263 -20 12 49.38791
 2018-Dec-04 01:05 A   09 51 24.027377 -20 12 49.24809
 2018-Dec-04 01:06 A   09 51 24.070464 -20 12 49.10837
 2018-Dec-04 01:07 A   09 51 24.113526 -20 12 48.96873
 2018-Dec-04 01:08     09 51 24.156562 -20 12 48.82919
 2018-Dec-04 01:09     09 51 24.199571 -20 12 48.68974
 2018-Dec-04 01:10     09 51 24.242555 -20 12 48.55039
 2018-Dec-04 01:11     09 51 24.285512 -20 12 48.41112
 2018-Dec-04 01:12     09 51 24.328443 -20 12 48.27194
 2018-Dec-04 01:13     09 51 24.371347 -20 12 48.13285
 2018-Dec-04 01:14     09 51 24.414225 -20 12 47.99384
 2018-Dec-04 01:15     09 51 24.457077 -20 12 47.85493
 2018-Dec-04 01:16     09 51 24.499901 -20 12 47.71610
 2018-Dec-04 01:17     09 51 24.542699 -20 12 47.57736
 2018-Dec-04 01:18     09 51 24.585470 -20 12 47.43871
 2018-Dec-04 01:19     09 51 24.628214 -20 12 47.30014
 2018-Dec-04 01:20     09 51 24.670932 -20 12 47.16166
 2018-Dec-04 01:21     09 51 24.713622 -20 12 47.02326
 2018-Dec-04 01:22     09 51 24.756284 -20 12 46.88494
 2018-Dec-04 01:23     09 51 24.798920 -20 12 46.74671
 2018-Dec-04 01:24     09 51 24.841528 -20 12 46.60857
 2018-Dec-04 01:25     09 51 24.884109 -20 12 46.47050
 2018-Dec-04 01:26     09 51 24.926662 -20 12 46.33252
 2018-Dec-04 01:27     09 51 24.969188 -20 12 46.19461
 2018-Dec-04 01:28     09 51 25.011686 -20 12 46.05679
 2018-Dec-04 01:29     09 51 25.054156 -20 12 45.91905
 2018-Dec-04 01:30     09 51 25.096599 -20 12 45.78139
 2018-Dec-04 01:31     09 51 25.139014 -20 12 45.64380
 2018-Dec-04 01:32     09 51 25.181400 -20 12 45.50630
 2018-Dec-04 01:33     09 51 25.223759 -20 12 45.36887
 2018-Dec-04 01:34     09 51 25.266089 -20 12 45.23152
 2018-Dec-04 01:35     09 51 25.308392 -20 12 45.09425
 2018-Dec-04 01:36     09 51 25.350666 -20 12 44.95705
 2018-Dec-04 01:37     09 51 25.392912 -20 12 44.81993
 2018-Dec-04 01:38     09 51 25.435129 -20 12 44.68289
 2018-Dec-04 01:39     09 51 25.477318 -20 12 44.54591
 2018-Dec-04 01:40     09 51 25.519478 -20 12 44.40902
 2018-Dec-04 01:41     09 51 25.561610 -20 12 44.27219
 2018-Dec-04 01:42     09 51 25.603712 -20 12 44.13544
 2018-Dec-04 01:43     09 51 25.645787 -20 12 43.99876
